INTELSAT 902 (IS-902)   
1 26900U 01039A   26193.44544819 -.00000288  00000+0  00000+0 0  9997
2 26900   6.1786  71.4730 0004424  37.0011 292.1157  1.00270766 90943
INTELSAT 904 (IS-904)   
1 27380U 02007A   26193.41415079 -.00000231  00000+0  00000+0 0  9996
2 27380   6.9804  68.8780 0005373  23.7610 315.2945  1.00271287 52018
DIRECTV 5 (TEMPO 1)     
1 27426U 02023A   26193.46086485 -.00000061  00000+0  00000+0 0  9996
2 27426   4.9397  74.9934 0003015  42.7165 228.4420  1.00271053 88372
INTELSAT 905 (IS-905)   
1 27438U 02027A   26193.48864409  .00000088  00000+0  00000+0 0  9993
2 27438   6.8144  69.4911 0003455  44.2995 215.2932  1.00271041 51612
GALAXY 3C (G-3C)        
1 27445U 02030A   26193.44975270 -.00000155  00000+0  00000+0 0  9996
2 27445   3.7962  77.6463 0001490  37.5120 242.2648  1.00270692 46742
INTELSAT 906 (IS-906)   
1 27513U 02041A   26193.52448762  .00000008  00000+0  00000+0 0  9990
2 27513   5.8647  72.6091 0003903  21.4805  89.2784  1.00272600 87281
GALAXY 13 (HORIZONS-1)  
1 27954U 03044A   26193.46196661  .00000132  00000+0  00000+0 0  9992
2 27954   1.4826  83.5429 0002162  25.2357 197.8717  1.00270057 46828
INTELSAT 10-02          
1 28358U 04022A   26193.42013082 -.00000010  00000+0  00000+0 0  9995
2 28358   0.0535 254.9174 0000536 349.3826 196.2509  1.00271018 80800
DIRECTV 8               
1 28659U 05019A   26193.32551925  .00000003  00000+0  00000+0 0  9999
2 28659   0.0207  76.4801 0003029  49.6960 162.1756  1.00271136 77323
GALAXY 28 (G-28)        
1 28702U 05022A   26193.41501745 -.00000202  00000+0  00000+0 0  9999
2 28702   3.3615  78.6233 0002307  30.5332 303.4485  1.00270870 52229
GALAXY 16 (G-16)        
1 29236U 06023A   26193.47210666 -.00000126  00000+0  00000+0 0  9994
2 29236   0.0371 112.1064 0002440   9.5155 239.6986  1.00271197 73220
DIRECTV 9S              
1 29494U 06043A   26193.47167332 -.00000115  00000+0  00000+0 0  9991
2 29494   2.4834  80.5965 0004980  33.0616 245.3055  1.00270965 51633
GALAXY 17 (G-17)        
1 31307U 07016B   26193.47488000 -.00000208  00000+0  00000+0 0  9999
2 31307   3.0331  79.5815 0003544  33.7064 263.0081  1.00270452 70053
INTELSAT 11 (IS-11)     
1 32253U 07044B   26193.28084556 -.00000089  00000+0  00000+0 0  9995
2 32253   3.6281  78.3647 0004076 100.4528 227.8572  0.99051225 68694
HORIZONS-2              
1 32388U 07063B   26193.47704668 -.00000255  00000+0  00000+0 0  9994
2 32388   2.6647  80.3154 0003528  18.5750 289.4150  1.00270044 68063
DIRECTV 11              
1 32729U 08013A   26193.47201999 -.00000124  00000+0  00000+0 0  9993
2 32729   0.0136 269.7582 0000223  48.3726  42.9725  1.00266897 45840
GALAXY 18 (G-18)        
1 32951U 08024A   26193.46733997  .00000000  00000+0  00000+0 0  9991
2 32951   0.0300  52.1335 0002827  75.1923 208.2806  1.00270344 46108
GALAXY 19 (G-19)        
1 33376U 08045A   26193.47245332 -.00000138  00000+0  00000+0 0  9991
2 33376   0.0536 241.4688 0002325 239.9809 241.9928  1.00272083 65158
FM-5                    
1 35493U 09034A   26193.29628021 -.00000198  00000+0  00000+0 0  9998
2 35493   0.0394 271.0539 0000508  63.5160 336.1175  1.00271109 46897
INTELSAT 14 (IS-14)     
1 36097U 09064A   26193.41146411 -.00000272  00000+0  00000+0 0  9997
2 36097   0.0159  35.3901 0002213  83.2542 274.7980  1.00270839 60851
INTELSAT 15 (IS-15)     
1 36106U 09067A   26193.52849444 -.00000184  00000+0  00000+0 0  9991
2 36106   0.0163  61.3385 0002092  58.8183  85.6725  1.00271058 41484
DIRECTV 12              
1 36131U 09075A   26193.49975280 -.00000102  00000+0  00000+0 0  9992
2 36131   0.0044 140.0101 0000404  82.5275 145.0306  1.00271124 46803
INTELSAT 16 (IS-16)     
1 36397U 10006A   26193.47661334 -.00000243  00000+0  00000+0 0  9998
2 36397   0.0104  43.6500 0002269  92.6248 249.4711  1.00270741 59906
XM-5                    
1 37185U 10053A   26193.39142009 -.00000021  00000+0  00000+0 0  9994
2 37185   0.0638 265.1753 0001763 321.4698  89.3548  1.00271183 57734
INTELSAT 17 (IS-17)     
1 37238U 10065B   26193.43347755  .00000000  00000+0  00000+0 0  9992
2 37238   0.0210  92.7588 0002641  24.4929  35.1207  1.00272062 53501
INTELSAT 28 (IS-28)     
1 37392U 11016A   26193.41406412 -.00000226  00000+0  00000+0 0  9995
2 37392   1.8688  82.3095 0003667  39.1874 286.1527  1.00271626 53530
INTELSAT 18 (IS-18)     
1 37834U 11056A   26193.59141994  .00000053  00000+0  00000+0 0  9997
2 37834   0.0175 306.2781 0001622 177.1286 199.9840  1.00269969 54067
INTELSAT 22 (IS-22)     
1 38098U 12011A   26193.50599348  .00000000  00000+0  00000+0 0  9995
2 38098   0.0418  70.9141 0001950  62.5634  51.1677  1.00271239  7443
INTELSAT 19 (IS-19)     
1 38356U 12030A   26193.59697509 -.00000056  00000+0  00000+0 0  9992
2 38356   0.0135  48.4898 0003070  76.6724 186.2319  1.00271136 50702
INTELSAT 20 (IS-20)     
1 38740U 12043A   26193.50521348 -.00000023  00000+0  00000+0 0  9995
2 38740   0.0128  63.1820 0001137 106.1455  11.4397  1.00270737 51007
INTELSAT 21 (IS-21)     
1 38749U 12045A   26193.48016670 -.00000284  00000+0  00000+0 0  9999
2 38749   0.0180  30.2842 0001732  90.1398 284.8112  1.00276099 50773
